{
  "type": "FeatureCollection",
  "features": [
    {
      "type": "Feature",
      "properties": {
        "norad_id": 30454,
        "name": "FENGYUN 1C DEB",
        "group": "fengyun-1c-debris",
        "lat": -46.79255323059191,
        "lon": -21.827527912135242,
        "alt_km": 961.4173784795676,
        "timestamp": "2025-12-26T08:37:54.856876+00:00",
        "meta_object_name": "FENGYUN 1C DEB",
        "meta_object_id": "1999-025AFR",
        "meta_epoch": "2025-12-25T21:15:08.026848",
        "meta_mean_motion": 14.15479466,
        "meta_eccentricity": 0.0171397,
        "meta_inclination": 98.1345,
        "meta_ra_of_asc_node": 328.9811,
        "meta_arg_of_pericenter": 156.5811,
        "meta_mean_anomaly": 260.5462,
        "meta_ephemeris_type": 0,
        "meta_classification_type": "U",
        "meta_norad_cat_id": 30454,
        "meta_element_set_no": 999,
        "meta_rev_at_epoch": 96146,
        "meta_bstar": 0.0016549944,
        "meta_mean_motion_dot": 3.691e-05,
        "meta_mean_motion_ddot": 0,
        "tle_line1": "1 30454U 99025AFR 25359.88550957  .00003691  00000+0  16550-2 0  9999",
        "tle_line2": "2 30454  98.1345 328.9811 0171397 156.5811 260.5462 14.15479466961463"
      },
      "geometry": {
        "type": "Point",
        "coordinates": [
          -21.827527912135242,
          -46.79255323059191
        ]
      }
    },
    {
      "type": "Feature",
      "properties": {
        "norad_id": 30462,
        "name": "FENGYUN 1C DEB",
        "group": "fengyun-1c-debris",
        "lat": -33.59120395505174,
        "lon": -5.829045814867968,
        "alt_km": 918.6132526624988,
        "timestamp": "2025-12-26T08:37:54.856887+00:00",
        "meta_object_name": "FENGYUN 1C DEB",
        "meta_object_id": "1999-025AFZ",
        "meta_epoch": "2025-12-25T12:55:25.219776",
        "meta_mean_motion": 14.06274119,
        "meta_eccentricity": 0.0139089,
        "meta_inclination": 98.818,
        "meta_ra_of_asc_node": 347.4533,
        "meta_arg_of_pericenter": 214.043,
        "meta_mean_anomaly": 275.5811,
        "meta_ephemeris_type": 0,
        "meta_classification_type": "U",
        "meta_norad_cat_id": 30462,
        "meta_element_set_no": 999,
        "meta_rev_at_epoch": 96973,
        "meta_bstar": 5.1333e-05,
        "meta_mean_motion_dot": 4.9e-07,
        "meta_mean_motion_ddot": 0,
        "tle_line1": "1 30462U 99025AFZ 25359.53848634  .00000049  00000+0  51333-4 0  9996",
        "tle_line2": "2 30462  98.8180 347.4533 0139089 214.0430 275.5811 14.06274119969732"
      },
      "geometry": {
        "type": "Point",
        "coordinates": [
          -5.829045814867968,
          -33.59120395505174
        ]
      }
    },
    {
      "type": "Feature",
      "properties": {
        "norad_id": 30464,
        "name": "FENGYUN 1C DEB",
        "group": "fengyun-1c-debris",
        "lat": -30.92554084430242,
        "lon": -134.9190432564311,
        "alt_km": 786.632153458555,
        "timestamp": "2025-12-26T08:37:54.856897+00:00",
        "meta_object_name": "FENGYUN 1C DEB",
        "meta_object_id": "1999-025AGB",
        "meta_epoch": "2025-12-26T02:39:28.201248",
        "meta_mean_motion": 14.10250458,
        "meta_eccentricity": 0.010871,
        "meta_inclination": 98.8352,
        "meta_ra_of_asc_node": 50.183,
        "meta_arg_of_pericenter": 220.5141,
        "meta_mean_anomaly": 167.8661,
        "meta_ephemeris_type": 0,
        "meta_classification_type": "U",
        "meta_norad_cat_id": 30464,
        "meta_element_set_no": 999,
        "meta_rev_at_epoch": 97252,
        "meta_bstar": 4.9221e-05,
        "meta_mean_motion_dot": 4.8e-07,
        "meta_mean_motion_ddot": 0,
        "tle_line1": "1 30464U 99025AGB 25360.11074307  .00000048  00000+0  49221-4 0  9994",
        "tle_line2": "2 30464  98.8352  50.1830 0108710 220.5141 167.8661 14.10250458972523"
      },
      "geometry": {
        "type": "Point",
        "coordinates": [
          -134.9190432564311,
          -30.92554084430242
        ]
      }
    },
    {
      "type": "Feature",
      "properties": {
        "norad_id": 30465,
        "name": "FENGYUN 1C DEB",
        "group": "fengyun-1c-debris",
        "lat": 41.853610923781524,
        "lon": -83.14171798013234,
        "alt_km": 785.0370684890077,
        "timestamp": "2025-12-26T08:37:54.856907+00:00",
        "meta_object_name": "FENGYUN 1C DEB",
        "meta_object_id": "1999-025AGC",
        "meta_epoch": "2025-12-25T19:10:36.738048",
        "meta_mean_motion": 14.34000474,
        "meta_eccentricity": 0.00163159,
        "meta_inclination": 98.8284,
        "meta_ra_of_asc_node": 88.2835,
        "meta_arg_of_pericenter": 349.2128,
        "meta_mean_anomaly": 135.6011,
        "meta_ephemeris_type": 0,
        "meta_classification_type": "U",
        "meta_norad_cat_id": 30465,
        "meta_element_set_no": 999,
        "meta_rev_at_epoch": 97545,
        "meta_bstar": 0.0019274779,
        "meta_mean_motion_dot": 5.347e-05,
        "meta_mean_motion_ddot": 0,
        "tle_line1": "1 30465U 99025AGC 25359.79903632  .00005347  00000+0  19275-2 0  9990",
        "tle_line2": "2 30465  98.8284  88.2835 0016315 349.2128 135.6011 14.34000474975452"
      },
      "geometry": {
        "type": "Point",
        "coordinates": [
          -83.14171798013234,
          41.853610923781524
        ]
      }
    },
    {
      "type": "Feature",
      "properties": {
        "norad_id": 30466,
        "name": "FENGYUN 1C DEB",
        "group": "fengyun-1c-debris",
        "lat": -59.4559140621941,
        "lon": -154.81208091439814,
        "alt_km": 843.110843405063,
        "timestamp": "2025-12-26T08:37:54.856917+00:00",
        "meta_object_name": "FENGYUN 1C DEB",
        "meta_object_id": "1999-025AGD",
        "meta_epoch": "2025-12-26T02:42:41.599872",
        "meta_mean_motion": 14.22596208,
        "meta_eccentricity": 0.0115913,
        "meta_inclination": 98.6539,
        "meta_ra_of_asc_node": 39.9025,
        "meta_arg_of_pericenter": 345.3614,
        "meta_mean_anomaly": 73.8359,
        "meta_ephemeris_type": 0,
        "meta_classification_type": "U",
        "meta_norad_cat_id": 30466,
        "meta_element_set_no": 999,
        "meta_rev_at_epoch": 97541,
        "meta_bstar": 0.00099107,
        "meta_mean_motion_dot": 2.329e-05,
        "meta_mean_motion_ddot": 0,
        "tle_line1": "1 30466U 99025AGD 25360.11298148  .00002329  00000+0  99107-3 0  9998",
        "tle_line2": "2 30466  98.6539  39.9025 0115913 345.3614  73.8359 14.22596208975415"
      },
      "geometry": {
        "type": "Point",
        "coordinates": [
          -154.81208091439814,
          -59.4559140621941
        ]
      }
    },
    {
      "type": "Feature",
      "properties": {
        "norad_id": 30467,
        "name": "FENGYUN 1C DEB",
        "group": "fengyun-1c-debris",
        "lat": 43.0983568049648,
        "lon": -144.2157217865286,
        "alt_km": 798.8178755984381,
        "timestamp": "2025-12-26T08:37:54.856927+00:00",
        "meta_object_name": "FENGYUN 1C DEB",
        "meta_object_id": "1999-025AGE",
        "meta_epoch": "2025-12-26T01:20:58.991712",
        "meta_mean_motion": 14.17319356,
        "meta_eccentricity": 0.0065118,
        "meta_inclination": 98.6777,
        "meta_ra_of_asc_node": 27.2721,
        "meta_arg_of_pericenter": 89.714,
        "meta_mean_anomaly": 298.6299,
        "meta_ephemeris_type": 0,
        "meta_classification_type": "U",
        "meta_norad_cat_id": 30467,
        "meta_element_set_no": 999,
        "meta_rev_at_epoch": 97366,
        "meta_bstar": 0.00080248,
        "meta_mean_motion_dot": 1.614e-05,
        "meta_mean_motion_ddot": 0,
        "tle_line1": "1 30467U 99025AGE 25360.05623833  .00001614  00000+0  80248-3 0  9997",
        "tle_line2": "2 30467  98.6777  27.2721 0065118  89.7140 298.6299 14.17319356973663"
      },
      "geometry": {
        "type": "Point",
        "coordinates": [
          -144.2157217865286,
          43.0983568049648
        ]
      }
    },
    {
      "type": "Feature",
      "properties": {
        "norad_id": 30468,
        "name": "FENGYUN 1C DEB",
        "group": "fengyun-1c-debris",
        "lat": -71.79827665943397,
        "lon": -126.55158703139506,
        "alt_km": 843.9255845474227,
        "timestamp": "2025-12-26T08:37:54.856937+00:00",
        "meta_object_name": "FENGYUN 1C DEB",
        "meta_object_id": "1999-025AGF",
        "meta_epoch": "2025-12-26T01:06:45.377856",
        "meta_mean_motion": 14.20787912,
        "meta_eccentricity": 0.0071311,
        "meta_inclination": 98.9212,
        "meta_ra_of_asc_node": 81.6674,
        "meta_arg_of_pericenter": 1.122,
        "meta_mean_anomaly": 92.0986,
        "meta_ephemeris_type": 0,
        "meta_classification_type": "U",
        "meta_norad_cat_id": 30468,
        "meta_element_set_no": 999,
        "meta_rev_at_epoch": 96999,
        "meta_bstar": 0.0014151,
        "meta_mean_motion_dot": 3.09e-05,
        "meta_mean_motion_ddot": 0,
        "tle_line1": "1 30468U 99025AGF 25360.04635854  .00003090  00000+0  14151-2 0  9992",
        "tle_line2": "2 30468  98.9212  81.6674 0071311   1.1220  92.0986 14.20787912969992"
      },
      "geometry": {
        "type": "Point",
        "coordinates": [
          -126.55158703139506,
          -71.79827665943397
        ]
      }
    }
  ]
}